ORBVIEW 2 (SEASTAR)     
1 24883U 97037A   25324.67895162  .00000346  00000+0  13662-3 0  9994
2 24883  98.8451 121.1996 0002722  42.2335 317.9058 14.35393319492833
SL-16 R/B               
1 25400U 98043G   25324.76664461  .00000085  00000+0  54581-4 0  9990
2 25400  98.8089 272.4658 0009421 336.3744  23.7002 14.26017767423469
SL-16 R/B               
1 25407U 98045B   25324.51500615 -.00000006  00000+0  20935-4 0  9992
2 25407  71.0123  51.1632 0008278 208.0432 152.0246 14.16168640411649
ISS (ZARYA)             
1 25544U 98067A   25324.54475791  .00013659  00000+0  25630-3 0  9990
2 25544  51.6324 252.3307 0003988 148.8281 211.2944 15.48924225539412
CZ-4B R/B               
1 25732U 99025C   25324.61471615  .00000112  00000+0  75265-4 0  9993
2 25732  98.6801   6.3862 0036127 299.4308 214.1901 14.18235763372709
OKEAN-O                 
1 25860U 99039A   25324.41310635  .00000815  00000+0  11442-3 0  9998
2 25860  97.9635  20.3050 0001183  66.7097 293.4239 14.80106936418227
SL-16 R/B               
1 25861U 99039B   25324.42970242  .00000689  00000+0  94670-4 0  9990
2 25861  98.0159  18.5763 0013562 250.2058 109.7692 14.81539941420684
DELTA 2 R/B             
1 25876U 99041E   25324.61945512  .00001210  00000+0  23433-3 0  9991
2 25876  51.7633  16.7416 0504893  26.5832 336.0068 14.11322339347622
HELIOS 1B               
1 25977U 99064A   25324.46625203  .00002166  00000+0  24743-3 0  9999
2 25977  98.1756 218.4732 0002520  73.3477 286.8015 14.87152683669023
TERRA                   
1 25994U 99068A   25324.75777558  .00000564  00000+0  12434-3 0  9999
2 25994  97.9780  17.2449 0002882 143.1936 326.1023 14.60916200379178
SL-16 R/B               
1 26070U 00006B   25324.43146824 -.00000120  00000+0 -36755-4 0  9993
2 26070  71.0019 327.5647 0017302 339.8996  20.1444 14.15801227333093
TITAN 4B R/B            
1 26474U 00047B   25324.66586414  .00003427  00000+0  22326-3 0  9993
2 26474  67.9902 346.8400 0040865 170.6066 189.5856 15.08556568376469
